{
    "links": {
        "self": "http://www.neowsapp.com/rest/v1/neo/3638334?api_key=iIulBulltgU6a56xZRHN4H3l9WmuAYTsLGpBGhQ2"
    },
    "id": "3638334",
    "neo_reference_id": "3638334",
    "name": "(2013 JS17)",
    "designation": "2013 JS17",
    "nasa_jpl_url": "http://ssd.jpl.nasa.gov/sbdb.cgi?sstr=3638334",
    "absolute_magnitude_h": 23.0,
    "estimated_diameter": {
        "kilometers": {
            "estimated_diameter_min": 0.0667659413,
            "estimated_diameter_max": 0.1492931834
        },
        "meters": {
            "estimated_diameter_min": 66.7659413495,
            "estimated_diameter_max": 149.2931834393
        },
        "miles": {
            "estimated_diameter_min": 0.0414864197,
            "estimated_diameter_max": 0.0927664547
        },
        "feet": {
            "estimated_diameter_min": 219.0483710172,
            "estimated_diameter_max": 489.807047955
        }
    },
    "is_potentially_hazardous_asteroid": false,
    "close_approach_data": [
        {
            "close_approach_date": "2013-04-23",
            "close_approach_date_full": "2013-Apr-23 03:10",
            "epoch_date_close_approach": 1366686600000,
            "relative_velocity": {
                "kilometers_per_second": "19.4920465161",
                "kilometers_per_hour": "70171.3674577955",
                "miles_per_hour": "43601.7588517619"
            },
            "miss_distance": {
                "astronomical": "0.1048978656",
                "lunar": "40.8052697184",
                "kilometers": "15692497.261306272",
                "miles": "9750865.6445276736"
            },
            "orbiting_body": "Earth"
        }
    ],
    "orbital_data": {
        "orbit_id": "8",
        "orbit_determination_date": "2017-04-06 08:45:54",
        "first_observation_date": "2013-05-08",
        "last_observation_date": "2013-05-21",
        "data_arc_in_days": 13,
        "observations_used": 21,
        "orbit_uncertainty": "9",
        "minimum_orbit_intersection": ".0388052",
        "jupiter_tisserand_invariant": "3.143",
        "epoch_osculation": "2456422.5",
        "eccentricity": ".7399463460810527",
        "semi_major_axis": "2.294401393398131",
        "inclination": "11.71813270379865",
        "ascending_node_longitude": "54.09591943911505",
        "orbital_period": "1269.411777876129",
        "perihelion_distance": ".596667465909908",
        "perihelion_argument": "74.86395519632295",
        "aphelion_distance": "3.992135320886354",
        "perihelion_time": "2456358.679547331067",
        "mean_anomaly": "18.09921993890454",
        "mean_motion": ".2835959192078092",
        "equinox": "J2000",
        "orbit_class": {
            "orbit_class_type": "APO",
            "orbit_class_description": "Near-Earth asteroid orbits which cross the Earth’s orbit similar to that of 1862 Apollo",
            "orbit_class_range": "a (semi-major axis) > 1.0 AU; q (perihelion) < 1.017 AU"
        }
    },
    "is_sentry_object": false
}